[{"OBJECT_NAME":"STARLINK-30710","OBJECT_ID":"2023-148D","EPOCH":"2026-03-09T02:12:54.289728","MEAN_MOTION":15.3019127,"ECCENTRICITY":0.00013365,"INCLINATION":53.162,"RA_OF_ASC_NODE":16.9954,"ARG_OF_PERICENTER":96.4809,"MEAN_ANOMALY":263.6344,"EPHEMERIS_TYPE":0,"CLASSIFICATION_TYPE":"U","NORAD_CAT_ID":57938,"ELEMENT_SET_NO":999,"REV_AT_EPOCH":13846,"BSTAR":2.036051e-6,"MEAN_MOTION_DOT":-2.99e-6,"MEAN_MOTION_DDOT":0},{"OBJECT_NAME":"EXO-0","OBJECT_ID":"2023-174DK","EPOCH":"2026-03-09T17:03:04.419648","MEAN_MOTION":15.32821991,"ECCENTRICITY":0.00098779,"INCLINATION":97.3864,"RA_OF_ASC_NODE":148.9039,"ARG_OF_PERICENTER":157.1125,"MEAN_ANOMALY":203.0559,"EPHEMERIS_TYPE":0,"CLASSIFICATION_TYPE":"U","NORAD_CAT_ID":59175,"ELEMENT_SET_NO":999,"REV_AT_EPOCH":12979,"BSTAR":0.00036716083,"MEAN_MOTION_DOT":0.00011582,"MEAN_MOTION_DDOT":0}]
