STARLINK-30710          
1 57938U 23148D   26068.09229502 -.00000299  00000+0  20361-5 0  9998
2 57938  53.1620  16.9954 0001336  96.4809 263.6344 15.30191270138463
EXO-0                   
1 59175U 23174DK  26068.71046781  .00011582  00000+0  36716-3 0  9992
2 59175  97.3864 148.9039 0009878 157.1125 203.0559 15.32821991129797
